STARLINK-5549           
1 56360U 23058AV  25042.90161234 -.00000169  00000+0 -85451-5 0  9992
2 56360  97.6572  46.3569 0001151 122.9623 237.1712 15.01258259 99508
STARLINK-5550           
1 56361U 23058AW  25042.96641473  .00000062  00000+0  94252-5 0  9996
2 56361  97.6580  46.4264 0002509 140.7787 219.3619 15.01258846 99519
STARLINK-5972           
1 56362U 23058AX  25043.43111751 -.00002560  00000+0 -19481-3 0  9997
2 56362  97.6592  46.8899 0001581  83.9480 276.1924 15.01256544 99094
STARLINK-6156           
1 56374U 23061A   25042.61012753  .00004841  00000+0  37319-3 0  9997
2 56374  43.0086 162.7033 0003287 273.9538  86.0929 15.02540399 99029
STARLINK-6158           
1 56375U 23061B   25043.33581457 -.00000369  00000+0 -12264-4 0  9996
2 56375  43.0019 158.6824 0001085 268.7280  91.3438 15.02534503 98324
STARLINK-6188           
1 56376U 23061C   25042.05164143  .00000442  00000+0  47822-4 0  9992
2 56376  43.0021 165.3851 0001155 272.1019  87.9691 15.02536913 97845
STARLINK-6189           
1 56377U 23061D   25043.33248331 -.00000443  00000+0 -17761-4 0  9999
2 56377  43.0015 158.6574 0001302 304.8406  55.2314 15.02532003 98323
STARLINK-6191           
1 56378U 23061E   25042.73862078 -.00000591  00000+0 -28716-4 0  9999
2 56378  43.0017 161.9364 0001339 271.5883  88.4806 15.02534967 97941
STARLINK-6157           
1 56379U 23061F   25042.72308871 -.00001106  00000+0 -66821-4 0  9997
2 56379  43.0032 161.8292 0001597 281.3627  78.7036 15.02536138 99041
STARLINK-6161           
1 56380U 23061G   25042.59346343 -.00001020  00000+0 -60464-4 0  9992
2 56380  43.0027 162.5730 0000999 269.3720  90.7008 15.02527311 98211
STARLINK-6159           
1 56381U 23061H   25043.39452613  .00000006  00000+0  15543-4 0  9999
2 56381  43.0025 158.2636 0001319 279.5486  80.5207 15.02541148 98331
STARLINK-6160           
1 56382U 23061J   25042.51810496  .00000077  00000+0  20770-4 0  9996
2 56382  43.0020 162.8663 0001456 278.8292  81.2385 15.02533336 98208
STARLINK-6166           
1 56383U 23061K   25043.05214767 -.00001372  00000+0 -86497-4 0  9995
2 56383  43.0025 159.9928 0001347 264.8001  95.2688 15.02532753 98288
STARLINK-6153           
1 56384U 23061L   25043.04215566 -.00000506  00000+0 -22364-4 0  9994
2 56384  43.0032 159.9163 0001634 264.9344  95.1312 15.02533313 98284
STARLINK-6173           
1 56385U 23061M   25042.38070400  .00000427  00000+0  46634-4 0  9993
2 56385  42.9990 163.5545 0000853 268.6927  91.3817 15.02533743 97892
STARLINK-5836           
1 56386U 23061N   25043.36786985 -.00007571  00000+0 -54536-3 0  9993
2 56386  43.0019 158.0601 0001460 263.8168  96.2508 15.02578867 98335
STARLINK-6178           
1 56387U 23061P   25043.35790104 -.00014976  00000+0 -10938-2 0  9995
2 56387  42.9999 157.9901 0001805 290.5700  69.4948 15.02607762 98331
STARLINK-6176           
1 56388U 23061Q   25043.04331357 -.00001556  00000+0 -10239-3 0  9998
2 56388  43.0022 159.9192 0001821 267.2381  92.8252 15.01723894 98285
STARLINK-6145           
1 56389U 23061R   25042.70643718 -.00000564  00000+0 -26687-4 0  9991
2 56389  43.0033 161.6970 0001322 267.9721  92.0969 15.02527570 97946
STARLINK-6300           
1 56390U 23061S   25043.58336806  .00338872  00000+0  10088-2 0  9997
2 56390  42.9981 113.0630 0002447  22.2932 327.4748 15.90803757 98860
STARLINK-6298           
1 56391U 23061T   25043.29807542  .00000071  00000+0  20306-4 0  9999
2 56391  43.0015 158.3955 0001305 279.3363  80.7332 15.02535091 98323
STARLINK-6301           
1 56392U 23061U   25042.70237650 -.00001517  00000+0 -97260-4 0  9993
2 56392  43.0017 149.5364 0001221 277.4243  82.6461 15.02530302 98082
STARLINK-6303           
1 56393U 23061V   25043.36122467 -.00000135  00000+0  51141-5 0  9999
2 56393  43.0032 158.0093 0001174 267.6390  92.4318 15.02534512 98330
STARLINK-6305           
1 56394U 23061W   25042.69127695 -.00000853  00000+0 -48091-4 0  9990
2 56394  43.0022 149.4520 0001254 263.6151  96.4548 15.02527344 98085
STARLINK-6273           
1 56395U 23061X   25043.35936250 -.00009360  00000+0 -67808-3 0  9998
2 56395  43.0013 145.8648 0001553 279.6281  80.4386 15.02571453 98476
STARLINK-6302           
1 56396U 23061Y   25042.61925040 -.00002158  00000+0 -14476-3 0  9993
2 56396  43.0014 149.7719 0000911 275.3507  84.7231 15.02538618 93209
STARLINK-6271           
1 56397U 23061Z   25042.69681973  .00001220  00000+0  10536-3 0  9996
2 56397  43.0020 149.4940 0001043 270.2847  89.7876 15.02537873 98081
STARLINK-6288           
1 56398U 23061AA  25043.34716721  .00000155  00000+0  26549-4 0  9998
2 56398  43.0006 145.7711 0001247 268.3775  91.6925 15.02537255 98479
STARLINK-6277           
1 56399U 23061AB  25042.68794615 -.00000030  00000+0  12878-4 0  9996
2 56399  43.0023 149.4268 0001059 275.0336  85.0386 15.02529701 98088
STARLINK-6267           
1 56400U 23061AC  25042.67684820 -.00002232  00000+0 -15029-3 0  9991
2 56400  43.0027 149.3426 0001332 272.2855  87.7835 15.02520286 98086
STARLINK-6256           
1 56401U 23061AD  25043.21670704 -.00008847  00000+0 -64100-3 0  9991
2 56401  43.0017 133.5054 0001192 282.4944  77.5764 15.02517328 98603
STARLINK-6284           
1 56403U 23061AF  25042.67907068 -.00001327  00000+0 -83225-4 0  9994
2 56403  43.0022 149.3591 0001191 260.8101  99.2607 15.02527148 98086
STARLINK-6287           
1 56404U 23061AG  25042.73445302  .00000685  00000+0  65752-4 0  9999
2 56404  43.0028 148.9135 0001101 268.1105  91.9612 15.02535450 98099
STARLINK-6285           
1 56405U 23061AH  25042.27464107  .00000675  00000+0  65020-4 0  9990
2 56405  43.0030 151.4842 0001361 268.7156  91.3530 15.02540427 98315
STARLINK-6283           
1 56406U 23061AJ  25042.65908528 -.00000485  00000+0 -20814-4 0  9996
2 56406  43.0023 149.2061 0001093 264.2425  95.8292 15.02532823 98087
STARLINK-6282           
1 56407U 23061AK  25042.73663327  .00001927  00000+0  15762-3 0  9996
2 56407  43.0013 148.9301 0000801 283.3923  76.6830 15.02552388 98095
STARLINK-6289           
1 56408U 23061AL  25042.71779431 -.00000518  00000+0 -23300-4 0  9994
2 56408  43.0023 148.7708 0001274 273.3567  86.7130 15.02530607 98099
STARLINK-6241           
1 56409U 23061AM  25042.59815577 -.00000143  00000+0  44607-5 0  9990
2 56409  43.0023 149.6105 0000859 288.9343  71.1406 15.02534477 98366
STARLINK-6281           
1 56410U 23061AN  25043.31498255  .00000487  00000+0  51135-4 0  9996
2 56410  43.0028 145.5274 0001360 275.9847  84.0840 15.02533625 98479
STARLINK-6279           
1 56411U 23061AP  25043.32719210  .00001257  00000+0  10809-3 0  9993
2 56411  43.0019 145.6186 0000964 267.7738  92.2994 15.02536429 98476
STARLINK-6278           
1 56412U 23061AQ  25043.30943209  .00000121  00000+0  24012-4 0  9990
2 56412  43.0019 145.4840 0001274 268.0689  92.0008 15.02536298 98474
STARLINK-6258           
1 56413U 23061AR  25043.31831720 -.00000512  00000+0 -22866-4 0  9997
2 56413  43.0019 145.5519 0001087 265.5640  94.5078 15.02530531 98478
STARLINK-5136           
1 56414U 23061AS  25042.57373418 -.00000735  00000+0 -39334-4 0  9995
2 56414  43.0013 149.4240 0001076 271.4963  88.5756 15.02534629 98365
STARLINK-6268           
1 56415U 23061AT  25042.64798673 -.00000783  00000+0 -42869-4 0  9998
2 56415  43.0001 149.1187 0001355 274.7393  85.3295 15.02530329 98088
STARLINK-6260           
1 56416U 23061AU  25042.55745562 -.00005810  00000+0 -41560-3 0  9990
2 56416  43.0008 137.1564 0000814 249.3095 110.7660 15.02519330 98211
STARLINK-6261           
1 56417U 23061AV  25042.64133097 -.00000989  00000+0 -58154-4 0  9995
2 56417  43.0016 149.0702 0001376 265.7004  94.3681 15.02528752 98086
STARLINK-5356           
1 56418U 23061AW  25043.27541505 -.00003177  00000+0 -22022-3 0  9999
2 56418  43.0019 133.0843 0000877 253.2500 106.8246 15.02532001 98614
STARLINK-5350           
1 56419U 23061AX  25042.57152037 -.00000164  00000+0  29076-5 0  9990
2 56419  43.0025 149.4069 0001233 265.5803  94.4899 15.02533213 98366
STARLINK-6272           
1 56420U 23061AY  25043.27207242 -.00000231  00000+0 -20083-5 0  9994
2 56420  43.0022 133.0578 0001411 261.5612  98.5071 15.02534067 98614
STARLINK-6270           
1 56421U 23061AZ  25043.29204339 -.00004347  00000+0 -30671-3 0  9995
2 56421  43.0025 133.2055 0001475 270.2911  89.7762 15.02561252 98614
STARLINK-6236           
1 56422U 23061BA  25042.53416377  .00001851  00000+0  15202-3 0  9997
2 56422  42.9999 136.9770 0001737 249.6568 110.4088 15.02537549 98217
STARLINK-6239           
1 56423U 23061BB  25042.60396347 -.00000729  00000+0 -38899-4 0  9993
2 56423  43.0015 136.6461 0001592 269.1531  90.9128 15.02531437 98227
STARLINK-6242           
1 56424U 23061BC  25042.59397404  .00001057  00000+0  93323-4 0  9993
2 56424  43.0035 136.5703 0001579 279.5561  80.5103 15.02541130 98220
STARLINK-6224           
1 56425U 23061BD  25043.52799068 -.00001501  00000+0 -96042-4 0  9997
2 56425  43.0014 131.5387 0001479 275.6534  84.4140 15.02541357 98659
STARLINK-5352           
1 56426U 23061BE  25043.50480285  .00001416  00000+0  11988-3 0  9992
2 56426  43.0041 132.2095 0001759 271.1840  88.8801 15.02526602 98643
STARLINK-5724           
1 56427U 23061BF  25043.22890069 -.00000198  00000+0  41165-6 0  9997
2 56427  43.0023 133.5813 0001155 272.7660  87.3050 15.02534835 98606
STARLINK-6238           
1 56428U 23061BG  25043.51799636  .00000892  00000+0  81052-4 0  9995
2 56428  43.0020 131.4598 0001172 273.0344  87.0364 15.02540595 98653
STARLINK-6264           
1 56429U 23061BH  25042.65046386 -.00000242  00000+0 -28728-5 0  9990
2 56429  43.0033 136.1304 0001206 268.8720  91.1984 15.02534897 98239
STARLINK-5990           
1 56448U 23064A   25043.40647885 -.00000145  00000+0 -43792-5 0  9999
2 56448  69.9999  48.5712 0002915 267.7797  92.3029 14.98340266 97148
